NORAD_CAT_ID,OBJECT_NAME,OBJECT_TYPE,EPOCH,MEAN_MOTION,ECCENTRICITY,INCLINATION,RA_OF_ASC_NODE,ARG_OF_PERICENTER,MEAN_ANOMALY,BSTAR,MEAN_MOTION_DOT,MEAN_MOTION_DDOT,TLE_LINE0,TLE_LINE1,TLE_LINE2,SEMIMAJOR_AXIS,PERIOD,APOGEE,PERIGEE,DECAYED
49437.0,STARLINK-3130,PAYLOAD,2022-02-17 22:00:00,15.39371393,0.0001511,53.2175,18.9425,45.9107,292.2652,-0.017848,-0.00658838,0.0,0 STARLINK-3130,1 49437U 21104AF  22048.91667824 -.00658838  00000-0 -17848-1 0  9993,2 49437  53.2175  18.9425 0001511  45.9107 292.2652 15.39371393  3673,6826.104,93.545,449.0,446.93800000000016,0.0
49437.0,STARLINK-3130,PAYLOAD,2022-02-18 14:00:01,15.38439621,0.0001516,53.2174,15.8082,42.4114,31.1989,-0.018494,-0.00661837,0.0,0 STARLINK-3130,1 49437U 21104AF  22049.58334491 -.00661837  00000-0 -18494-1 0  9999,2 49437  53.2174  15.8082 0001516  42.4114  31.1989 15.38439621  3673,6828.86,93.601,451.76,449.69,0.0
49437.0,STARLINK-3130,PAYLOAD,2022-02-18 22:00:00,15.37972291,0.0001828,53.2175,14.2413,36.6334,83.8541,-0.01872,-0.00659926,0.0,0 STARLINK-3130,1 49437U 21104AF  22049.91667824 -.00659926  00000-0 -18720-1 0  9993,2 49437  53.2175  14.2413 0001828  36.6334  83.8541 15.37972291 16564,6830.243,93.63,453.357,450.86,0.0
49437.0,STARLINK-3130,PAYLOAD,2022-02-19 14:00:01,15.37041139,0.0001546,53.2174,11.1132,52.7543,159.8038,-0.019421,-0.00663826,0.0,0 STARLINK-3130,1 49437U 21104AF  22050.58334491 -.00663826  00000-0 -19421-1 0  9992,2 49437  53.2174  11.1132 0001546  52.7543 159.8038 15.37041139  3665,6833.001,93.686,455.923,453.81,0.0
49437.0,STARLINK-3130,PAYLOAD,2022-02-19 22:00:00,15.36444883,0.0001564999999999,53.2171,9.5509,42.4079,215.4151,-0.014316,-0.00485013,0.0,0 STARLINK-3130,1 49437U 21104AF  22050.91667824 -.00485013  00000-0 -14316-1 0  9996,2 49437  53.2171   9.5509 0001565  42.4079 215.4151 15.36444883 16719,6834.769,93.723,457.704,455.565,0.0
49437.0,STARLINK-3130,PAYLOAD,2022-02-20 06:00:00,15.36000704,0.0001774999999999,53.2175,7.9918,48.3598,254.0812,-0.015372,-0.00511583,0.0,0 STARLINK-3130,1 49437U 21104AF  22051.25001157 -.00511583  00000-0 -15372-1 0  9990,2 49437  53.2175   7.9918 0001775  48.3598 254.0812 15.36000704 16761,6836.087,93.75,459.165,456.73800000000006,0.0
49437.0,STARLINK-3130,PAYLOAD,2022-02-20 14:00:01,15.35543891,0.0001669,53.2174,6.43,33.1357,313.3769,-0.0161669999999999,-0.00528946,0.0,0 STARLINK-3130,1 49437U 21104AF  22051.58334491 -.00528946  00000-0 -16167-1 0  9990,2 49437  53.2174   6.4300 0001669  33.1357 313.3769 15.35543891 16810,6837.441999999999,93.778,460.449,458.166,0.0
49437.0,STARLINK-3130,PAYLOAD,2022-02-20 22:00:00,15.35079967,0.0001488,53.2171,4.8698,34.2262,355.7955,-0.016361,-0.00527456,0.0,0 STARLINK-3130,1 49437U 21104AF  22051.91667824 -.00527456  00000-0 -16361-1 0  9997,2 49437  53.2171   4.8698 0001488  34.2262 355.7955 15.35079967 16865,6838.82,93.806,461.703,459.667,0.0
49437.0,STARLINK-3130,PAYLOAD,2022-02-21 06:00:00,15.3463132,0.000177,53.2174,3.3138,41.3938,31.5681,-0.017372,-0.00550403,0.0,0 STARLINK-3130,1 49437U 21104AF  22052.25001157 -.00550403  00000-0 -17372-1 0  9997,2 49437  53.2174   3.3138 0001770  41.3938  31.5681 15.34631320 16911,6840.153,93.834,463.229,460.807,0.0
49437.0,STARLINK-3130,PAYLOAD,2022-02-21 14:00:01,15.34140379,0.0001806,53.2172,1.7554,31.0488,84.3194,-0.016567,-0.00518899,0.0,0 STARLINK-3130,1 49437U 21104AF  22052.58334491 -.00518899  00000-0 -16567-1 0  9991,2 49437  53.2172   1.7554 0001806  31.0488  84.3194 15.34140379 16979,6841.611999999999,93.864,464.713,462.241,0.0
49437.0,STARLINK-3130,PAYLOAD,2022-02-21 22:00:00,15.33659279,0.0001936,53.2171,0.1985,46.1506,111.0589,-0.016245,-0.00502203,0.0,0 STARLINK-3130,1 49437U 21104AF  22052.91667824 -.00502203  00000-0 -16245-1 0  9992,2 49437  53.2171   0.1985 0001936  46.1506 111.0589 15.33659279 17027,6843.043000000002,93.893,466.233,463.583,0.0
49437.0,STARLINK-3130,PAYLOAD,2022-02-22 06:00:00,15.33304178,0.0001925,53.2175,358.6444,38.7161,159.7028,-0.021622,-0.00656068,0.0,0 STARLINK-3130,1 49437U 21104AF  22053.25001157 -.00656068  00000-0 -21622-1 0  9995,2 49437  53.2175 358.6444 0001925  38.7161 159.7028 15.33304178 17071,6844.099,93.915,467.282,464.647,0.0
49437.0,STARLINK-3130,PAYLOAD,2022-02-22 14:00:01,15.3284108,0.0001712,53.2175,357.0888,44.348,194.7802,-0.022143,-0.0066164,0.0,0 STARLINK-3130,1 49437U 21104AF  22053.58334491 -.00661640  00000-0 -22143-1 0  9992,2 49437  53.2175 357.0888 0001712  44.3480 194.7802 15.32841080  3652,6845.478,93.943,468.515,466.171,0.0
49437.0,STARLINK-3130,PAYLOAD,2022-02-22 22:00:00,15.32373716,0.0001735,53.2177,355.5362,42.1384,237.139,-0.022412,-0.00659986,0.0,0 STARLINK-3130,1 49437U 21104AF  22053.91667824 -.00659986  00000-0 -22412-1 0  9997,2 49437  53.2177 355.5362 0001735  42.1384 237.1390 15.32373716  3658,6846.869000000002,93.972,469.922,467.546,0.0
49437.0,STARLINK-3130,PAYLOAD,2022-02-23 06:00:00,15.319057699999998,0.0001653,53.2175,353.9863,41.453,277.4124,-0.022672,-0.00658007,0.0,0 STARLINK-3130,1 49437U 21104AF  22054.25001157 -.00658007  00000-0 -22672-1 0  9997,2 49437  53.2175 353.9863 0001653  41.4530 277.4124 15.31905770 17228,6848.264,94.001,471.261,468.997,0.0
49437.0,STARLINK-3130,PAYLOAD,2022-02-23 14:00:01,15.31440657,0.0001486,53.2175,352.434,43.6704,314.2234,-0.023116,-0.00660921,0.0,0 STARLINK-3130,1 49437U 21104AF  22054.58334491 -.00660921  00000-0 -23116-1 0  9995,2 49437  53.2175 352.4340 0001486  43.6704 314.2234 15.31440657  3666,6849.65,94.029,472.533,470.497,0.0
49437.0,STARLINK-3130,PAYLOAD,2022-02-23 22:00:00,15.309751,0.0001701,53.2176,350.8849,36.5055,359.8548,-0.023506,-0.00662267,0.0,0 STARLINK-3130,1 49437U 21104AF  22054.91667824 -.00662267  00000-0 -23506-1 0  9999,2 49437  53.2176 350.8849 0001701  36.5055 359.8548 15.30975100  3661,6851.0390000000025,94.058,474.069,471.73800000000006,0.0
49437.0,STARLINK-3130,PAYLOAD,2022-02-24 06:00:00,15.30504367,0.000176,53.2174,349.3381,36.0936,38.1738,-0.023598,-0.00655657,0.0,0 STARLINK-3130,1 49437U 21104AF  22055.25001157 -.00655657  00000-0 -23598-1 0  9994,2 49437  53.2174 349.3381 0001760  36.0936  38.1738 15.30504367 17386,6852.443,94.087,475.514,473.102,0.0
49437.0,STARLINK-3130,PAYLOAD,2022-02-24 14:00:01,15.30039299,0.0001618,53.2174,347.7891,42.9479,68.6658,-0.024027,-0.00657799,0.0,0 STARLINK-3130,1 49437U 21104AF  22055.58334491 -.00657799  00000-0 -24027-1 0  9997,2 49437  53.2174 347.7891 0001618  42.9479  68.6658 15.30039299  3666,6853.831999999999,94.115,476.806,474.588,0.0
49437.0,STARLINK-3130,PAYLOAD,2022-02-24 22:00:00,15.29469253,0.0001754999999999,53.2169,346.244,47.4142,101.0404,-0.019048,-0.00515376,0.0,0 STARLINK-3130,1 49437U 21104AF  22055.91667824 -.00515376  00000-0 -19048-1 0  9994,2 49437  53.2169 346.2440 0001755  47.4142 101.0404 15.29469253  3636,6855.535,94.15,478.603,476.197,0.0
49437.0,STARLINK-3130,PAYLOAD,2022-02-25 06:00:00,15.29102675,0.0001748,53.2173,344.6997,44.3008,140.3229,-0.024491,-0.00651775,0.0,0 STARLINK-3130,1 49437U 21104AF  22056.25001157 -.00651775  00000-0 -24491-1 0  9995,2 49437  53.2173 344.6997 0001748  44.3008 140.3229 15.29102675 17536,6856.63,94.173,479.694,477.297,0.0
49437.0,STARLINK-3130,PAYLOAD,2022-02-25 14:00:01,15.28551538,0.0001754,53.217,343.1554,37.6257,182.7049,-0.020168,-0.00529426,0.0,0 STARLINK-3130,1 49437U 21104AF  22056.58334491 -.00529426  00000-0 -20168-1 0  9995,2 49437  53.2170 343.1554 0001754  37.6257 182.7049 15.28551538  3635,6858.279,94.207,481.346,478.941,0.0
49437.0,STARLINK-3130,PAYLOAD,2022-02-25 22:00:00,15.28173635,0.0001825,53.2174,341.6116,41.0166,214.3736,-0.025485,-0.00658575,0.0,0 STARLINK-3130,1 49437U 21104AF  22056.91667824 -.00658575  00000-0 -25485-1 0  9996,2 49437  53.2174 341.6116 0001825  41.0166 214.3736 15.28173635  3669,6859.409000000002,94.23,482.526,480.022,0.0
49437.0,STARLINK-3130,PAYLOAD,2022-02-26 06:00:00,15.27704894,0.0001569,53.2173,340.0711,48.3701,241.5626,-0.025678,-0.00654367,0.0,0 STARLINK-3130,1 49437U 21104AF  22057.25001157 -.00654367  00000-0 -25678-1 0  9994,2 49437  53.2173 340.0711 0001569  48.3701 241.5626 15.27704894 17685,6860.812,94.259,483.754,481.601,0.0
49437.0,STARLINK-3130,PAYLOAD,2022-02-26 14:00:01,15.27239338,0.0001631,53.2174,338.5287,40.8108,283.1049,-0.026146,-0.00656697,0.0,0 STARLINK-3130,1 49437U 21104AF  22057.58334491 -.00656697  00000-0 -26146-1 0  9999,2 49437  53.2174 338.5287 0001631  40.8108 283.1049 15.27239338  3664,6862.206,94.288,485.191,482.952,0.0
49437.0,STARLINK-3130,PAYLOAD,2022-02-26 22:00:00,15.26775062,0.0001676999999999,53.2176,336.9898,39.8468,317.4890000000001,-0.026681,-0.00660427,0.0,0 STARLINK-3130,1 49437U 21104AF  22057.91667824 -.00660427  00000-0 -26681-1 0  9995,2 49437  53.2176 336.9898 0001677  39.8468 317.4890 15.26775062  3666,6863.597,94.316,486.61300000000006,484.311,0.0
49437.0,STARLINK-3130,PAYLOAD,2022-02-27 06:00:00,15.26306417,0.0001501999999999,53.2173,335.4526,44.6071,345.5893,-0.026885,-0.00656339,0.0,0 STARLINK-3130,1 49437U 21104AF  22058.25001157 -.00656339  00000-0 -26885-1 0  9997,2 49437  53.2173 335.4526 0001502  44.6071 345.5893 15.26306417 17839,6865.002,94.345,487.898,485.836,0.0
49437.0,STARLINK-3130,PAYLOAD,2022-02-27 14:00:01,15.25839447,0.0001655,53.2174,333.9133,37.9742,24.524,-0.027281,-0.0065663,0.0,0 STARLINK-3130,1 49437U 21104AF  22058.58334491 -.00656630  00000-0 -27281-1 0  9998,2 49437  53.2174 333.9133 0001655  37.9742  24.5240 15.25839447  3654,6866.403,94.374,489.404,487.132,0.0
49437.0,STARLINK-3130,PAYLOAD,2022-02-27 22:00:00,15.2537491,0.0001873,53.2174,332.3780000000001,34.9098,59.3265,-0.027821,-0.00660045,0.0,0 STARLINK-3130,1 49437U 21104AF  22058.91667824 -.00660045  00000-0 -27821-1 0  9999,2 49437  53.2174 332.3780 0001873  34.9098  59.3265 15.25374910  3650,6867.797,94.403,490.948,488.376,0.0
